KUIPER-00008            
1 63724U 25088A   26185.56264944  .00000512  00000+0  96189-4 0  9991
2 63724  51.9002 291.1966 0000546 107.0554 253.0468 14.79926298 65356
KUIPER-00009            
1 63725U 25088B   26185.64503784 -.00006795  00000+0 -86331-3 0  9997
2 63725  51.9029 308.4617 0000386  80.2805 279.8201 14.79926673 65116
KUIPER-00010            
1 63726U 25088C   26185.53429256  .00000399  00000+0  81382-4 0  9991
2 63726  51.9019 286.4220 0000594 105.9766 254.1262 14.79932862 65034
KUIPER-00011            
1 63727U 25088D   26185.55997179  .00000617  00000+0  10989-3 0  9995
2 63727  51.8999 293.8601 0000733 108.5110 251.5932 14.79932372 65067
KUIPER-00012            
1 63728U 25088E   26185.54237044 -.00001078  00000+0 -11238-3 0  9995
2 63728  51.9025 278.8728 0000533 107.7047 252.3974 14.79932209 65222
KUIPER-00013            
1 63729U 25088F   26185.60859348  .00001035  00000+0  16478-3 0  9992
2 63729  51.9013 311.0967 0001250  91.4704 268.6402 14.79920298 64883
KUIPER-00014            
1 63730U 25088G   26185.64238333  .00001308  00000+0  20052-3 0  9999
2 63730  51.9053 310.8919 0000763  95.1448 264.9601 14.79929565 64704
KUIPER-00015            
1 63731U 25088H   26185.39525017 -.00000195  00000+0  34115-5 0  9991
2 63731  51.8986 322.0490 0000371 129.5987 230.5009 14.79927302 64981
KUIPER-00016            
1 63732U 25088J   26184.35661751  .00002740  00000+0  38833-3 0  9999
2 63732  51.9010 319.0921 0000628 102.0829 258.0204 14.79929676 64474
KUIPER-00018            
1 63733U 25088K   26185.61670751  .00001191  00000+0  18519-3 0  9998
2 63733  51.9046 303.5476 0000782  97.8394 262.2657 14.79932941 64801
KUIPER-00019            
1 63734U 25088L   26185.30571866  .00001160  00000+0  18123-3 0  9999
2 63734  51.9015 303.6851 0000735 105.5930 254.5114 14.79915273 64774
KUIPER-00020            
1 63735U 25088M   26185.61401092  .00000438  00000+0  86439-4 0  9990
2 63735  51.9028 306.0651 0000557 107.3722 252.7302 14.79932407 64974
KUIPER-00021            
1 63736U 25088N   26185.31012786 -.00000306  00000+0 -11117-4 0  9993
2 63736  51.9002 307.3641 0000629 100.4896 259.6137 14.79928732 64761
KUIPER-00023            
1 63737U 25088P   26185.34117619  .00001787  00000+0  26352-3 0  9996
2 63737  51.9027 309.7162 0000718 110.4770 249.6270 14.79912126 65032
KUIPER-00024            
1 63738U 25088Q   26185.35468896 -.00000135  00000+0  11283-4 0  9999
2 63738  51.9037 297.2541 0000487 117.1990 242.9022 14.79926769 65339
KUIPER-00025            
1 63739U 25088R   26185.58290524  .00003103  00000+0  43605-3 0  9995
2 63739  51.9046 303.7245 0000536  67.9448 292.1571 14.79913948 65127
KUIPER-00027            
1 63740U 25088S   26185.62209933  .00002379  00000+0  34095-3 0  9993
2 63740  51.8994 298.5226 0001008 104.2772 255.8303 14.79930205 64932
KUIPER-00028            
1 63741U 25088T   26185.59103077  .00000128  00000+0  45841-4 0  9994
2 63741  51.8996 296.1129 0000529  99.6834 260.4188 14.79925391 65376
KUIPER-00029            
1 63742U 25088U   26185.29692757  .00053048  00000+0  69546-2 0  9995
2 63742  51.9021 296.0956 0001699 220.2364 139.8473 14.79800064 64872
KUIPER-00030            
1 63743U 25088V   26185.40332715  .00000370  00000+0  77620-4 0  9998
2 63743  51.9047 314.4522 0001146 105.2764 254.8325 14.79917352 64916
KUIPER-00031            
1 63744U 25088W   26185.34972834  .00005078  00000+0  75229-3 0  9996
2 63744  51.9012 299.3418 0002115 167.7263 192.3750 14.76503027 64834
KUIPER-00032            
1 63745U 25088X   26185.35409617  .00018340  00000+0  45114-3 0  9998
2 63745  51.8658 178.5917 0003223 167.1409 192.9661 15.40668981 67517
KUIPER-00033            
1 63746U 25088Y   26185.42090308  .00005479  00000+0  74724-3 0  9998
2 63746  51.9015 329.3958 0000581  97.7431 262.3598 14.79925331 64901
KUIPER-00034            
1 63747U 25088Z   26185.59639018  .00004331  00000+0  59644-3 0  9994
2 63747  51.9023 291.1512 0000190  76.9849 283.1135 14.79958243 65133
KUIPER-00035            
1 63748U 25088AA  26185.63698858  .00000672  00000+0  11721-3 0  9995
2 63748  51.9003 315.9495 0000638  97.3948 262.7087 14.79914322 64847
KUIPER-00037            
1 63749U 25088AB  26185.62990927  .00000292  00000+0  67320-4 0  9992
2 63749  51.9018 314.8367 0000726 103.5472 256.5572 14.79935318 65647
KUIPER-00038            
1 63750U 25088AC  26185.61940756  .00001234  00000+0  19086-3 0  9990
2 63750  51.9026 301.0480 0000818 106.6317 253.4735 14.79934403 64837
KUIPER-00039            
1 64500U 25134A   26185.38938245  .00004117  00000+0  56868-3 0  9992
2 64500  51.8990  77.0619 0000574 104.7236 255.3790 14.79939547 57357
KUIPER-00040            
1 64501U 25134B   26185.41237606  .00000921  00000+0  14981-3 0  9999
2 64501  51.8987  87.0438 0000909  88.2568 271.8498 14.79925735 57217
KUIPER-00041            
1 64502U 25134C   26185.44343264  .00002080  00000+0  30181-3 0  9999
2 64502  51.8974  89.2912 0001075  98.2052 261.9032 14.79931830 57182
KUIPER-00042            
1 64503U 25134D   26185.41505255  .00000877  00000+0  14404-3 0  9999
2 64503  51.8974  84.3925 0000609  95.8522 264.2509 14.79929887 57252
KUIPER-00043            
1 64504U 25134E   26185.42314163  .00003928  00000+0  54392-3 0  9997
2 64504  51.9008  76.8540 0000722 100.7347 259.3697 14.79935094 57360
KUIPER-00044            
1 64505U 25134F   26185.00448010  .00001550  00000+0  23228-3 0  9994
2 64505  51.8991  91.2121 0000866  99.4597 260.6463 14.79930841 57122
KUIPER-00046            
1 64506U 25134G   26185.44609430  .00000456  00000+0  88886-4 0  9994
2 64506  51.8962  86.7365 0000896 104.4085 255.6977 14.79915190 57227
KUIPER-00047            
1 64507U 25134H   26185.37448538  .00003561  00000+0  49581-3 0  9995
2 64507  51.8982  59.5749 0000879 107.3116 252.7942 14.79934337 57596
KUIPER-00048            
1 64508U 25134J   26185.34068095 -.00001213  00000+0 -13014-3 0  9995
2 64508  51.9007  59.7400 0000682 101.5813 258.5227 14.79937850 57597
KUIPER-00049            
1 64509U 25134K   26185.09088810  .00002406  00000+0  34456-3 0  9991
2 64509  51.8998  73.3081 0000700  98.6032 261.5010 14.79928528 57386
KUIPER-00050            
1 64510U 25134L   26185.37987601  .00003419  00000+0  47723-3 0  9996
2 64510  51.8980  54.5516 0000657  95.6432 264.4605 14.79934082 57671
KUIPER-00051            
1 64511U 25134M   26185.40453923  .00005461  00000+0  74493-3 0  9999
2 64511  51.9009  70.6151 0000899  84.8847 275.2218 14.79925664 57448
KUIPER-00053            
1 64513U 25134P   26185.37037761  .00003246  00000+0  43649-3 0  9993
2 64513  51.9006  66.1405 0000389 263.5539  96.5379 14.81675876 57506
KUIPER-00054            
1 64514U 25134Q   26185.06788824  .00005166  00000+0  70618-3 0  9992
2 64514  51.8984  63.4249 0000881  99.4239 260.6823 14.79928017 57511
KUIPER-00055            
1 64515U 25134R   26185.55809859  .00002982  00000+0  42004-3 0  9990
2 64515  51.9022  13.8871 0000990 110.4655 249.6414 14.79928794 58250
KUIPER-00056            
1 64516U 25134S   26185.36639304  .00003472  00000+0  48414-3 0  9992
2 64516  51.8993  67.1943 0000526 101.5734 258.5288 14.79936076 57498
KUIPER-00057            
1 64517U 25134T   26184.00768288  .00005129  00000+0  70124-3 0  9991
2 64517  51.8994  80.6379 0000715 102.1975 257.9068 14.79936991 57188
KUIPER-00058            
1 64518U 25134U   26185.39745628  .00002556  00000+0  36414-3 0  9993
2 64518  51.9031  69.4620 0000761  94.1733 265.9316 14.79930284 57464
KUIPER-00059            
1 64519U 25134V   26185.40285936  .00003844  00000+0  53298-3 0  9997
2 64519  51.8986  64.4779 0000642  96.5060 263.5975 14.79933604 57532
KUIPER-00060            
1 64520U 25134W   26185.36909908  .00004815  00000+0  66018-3 0  9999
2 64520  51.9036  64.6906 0000577 105.6731 254.4296 14.79934770 57517
KUIPER-00061            
1 64521U 25134X   26185.39477520  .00001090  00000+0  17195-3 0  9997
2 64521  51.9016  72.0298 0000700 104.8856 255.2184 14.79931661 57410
KUIPER-00062            
1 64522U 25134Y   26185.39207981  .00001212  00000+0  18804-3 0  9994
2 64522  51.8982  74.5219 0000692 111.1367 248.9670 14.79928134 57397
KUIPER-00063            
1 64523U 25134Z   26185.45152238  .00003595  00000+0  50032-3 0  9991
2 64523  51.9014  81.8074 0000741  95.0940 265.0108 14.79933765 57298
KUIPER-00064            
1 64524U 25134AA  26185.11655845  .00005507  00000+0  75060-3 0  9990
2 64524  51.9027  80.7131 0000635 106.1524 253.9508 14.79941447 57284
KUIPER-00065            
1 64525U 25134AB  26185.44883610  .00003979  00000+0  55057-3 0  9995
2 64525  51.9016  84.4128 0000728 101.1849 258.9196 14.79935410 57245
KUIPER-00066            
1 64526U 25134AC  26185.54998832  .00002784  00000+0  39398-3 0  9993
2 64526  51.9018  21.2455 0000608 107.2860 252.8169 14.79932924 58158
KUIPER-00069            
1 64816U 25151A   26185.54074425  .00003492  00000+0  48675-3 0  9992
2 64816  51.9009 123.9271 0000807  98.3996 261.7058 14.79934535 54069
KUIPER-00070            
1 64817U 25151B   26185.61506079  .00002554  00000+0  36392-3 0  9997
2 64817  51.8956 148.5109 0000763  81.8705 278.2344 14.79932767 53738
KUIPER-00071            
1 64818U 25151C   26185.28002835 -.00000260  00000+0 -50640-5 0  9990
2 64818  51.8967 147.5276 0000818 100.8228 259.2827 14.79904909 52537
KUIPER-00072            
1 64819U 25151D   26185.13279078 -.00002825  00000+0 -34190-3 0  9999
2 64819  51.8959 128.1279 0000868  62.4198 297.6853 14.79910285 52798
KUIPER-00073            
1 64820U 25151E   26185.58397167 -.00002193  00000+0 -25885-3 0  9999
2 64820  51.9009 146.1703 0000947  80.8035 279.3034 14.79923173 53767
KUIPER-00074            
1 64821U 25151F   26185.58335648  .00199461  26720-4  49662-3 0  9990
2 64821  51.8780  53.9283 0002161 154.4695  65.4280 15.95429897  5814
KUIPER-00075            
